start=new Date('2022-03-14T00:00:00.000Z').valueOf();
sats=[{"REV_AT_EPOCH":"7241","TLE_LINE1":"1 47141U 20088V   22072.92173854  .00003431  00000-0  24922-3 0  9990","GP_ID":"198688001","SEMIMAJOR_AXIS":"6925.393","APOAPSIS":"548.456","MEAN_ELEMENT_THEORY":"SGP4","CENTER_NAME":"EARTH","PERIOD":"95.593","MEAN_ANOMALY":"285.3024","REF_FRAME":"TEME","BSTAR":"0.00024922000000","DECAY_DATE":null,"MEAN_MOTION_DDOT":"0.0000000000000","NORAD_CAT_ID":"47141","COUNTRY_CODE":"US","INCLINATION":"53.0558","OBJECT_ID":"2020-088V","RCS_SIZE":"LARGE","OBJECT_TYPE":"PAYLOAD","ARG_OF_PERICENTER":"74.8156","RA_OF_ASC_NODE":"351.3107","PERIAPSIS":"546.061","LAUNCH_DATE":"2020-11-25","TLE_LINE2":"2 47141  53.0558 351.3107 0001729  74.8156 285.3024 15.06385365 72415","SITE":"AFETR","FILE":"3358388","EPOCH":"2022-03-13T22:07:18.209856","ELEMENT_SET_NO":"999","TIME_SYSTEM":"UTC","MEAN_MOTION":"15.06385365","MEAN_MOTION_DOT":"0.00003431","OBJECT_NAME":"STARLINK-1854","CLASSIFICATION_TYPE":"U","EPHEMERIS_TYPE":"0","ECCENTRICITY":"0.00017290"},{"MEAN_MOTION":"15.06390342","TIME_SYSTEM":"UTC","FILE":"3358098","EPOCH":"2022-03-13T12:07:32.034432","ELEMENT_SET_NO":"999","TLE_LINE2":"2 47143  53.0561 353.1614 0001751  60.3601 299.7562 15.06390342 72635","SITE":"AFETR","LAUNCH_DATE":"2020-11-25","ARG_OF_PERICENTER":"60.3601","RA_OF_ASC_NODE":"353.1614","PERIAPSIS":"546.031","ECCENTRICITY":"0.00017510","EPHEMERIS_TYPE":"0","CLASSIFICATION_TYPE":"U","OBJECT_NAME":"STARLINK-1856","MEAN_MOTION_DOT":"-0.00004141","BSTAR":"-0.00025932000000","MEAN_ANOMALY":"299.7562","PERIOD":"95.593","REF_FRAME":"TEME","APOAPSIS":"548.456","CENTER_NAME":"EARTH","MEAN_ELEMENT_THEORY":"SGP4","SEMIMAJOR_AXIS":"6925.378","GP_ID":"198659893","TLE_LINE1":"1 47143U 20088X   22072.50523188 -.00004141  00000-0 -25932-3 0  9998","REV_AT_EPOCH":"7263","OBJECT_TYPE":"PAYLOAD","RCS_SIZE":"LARGE","OBJECT_ID":"2020-088X","COUNTRY_CODE":"US","INCLINATION":"53.0561","NORAD_CAT_ID":"47143","MEAN_MOTION_DDOT":"0.0000000000000","DECAY_DATE":null},{"EPHEMERIS_TYPE":"0","ECCENTRICITY":"0.00019510","OBJECT_NAME":"STARLINK-1857","MEAN_MOTION_DOT":"0.00000412","CLASSIFICATION_TYPE":"U","ELEMENT_SET_NO":"999","FILE":"3358388","EPOCH":"2022-03-13T21:20:52.167552","MEAN_MOTION":"15.06395722","TIME_SYSTEM":"UTC","RA_OF_ASC_NODE":"341.4573","PERIAPSIS":"545.876","ARG_OF_PERICENTER":"52.9625","SITE":"AFETR","TLE_LINE2":"2 47144  53.0546 341.4573 0001951  52.9625 307.1542 15.06395722 72547","LAUNCH_DATE":"2020-11-25","OBJECT_ID":"2020-088Y","RCS_SIZE":"LARGE","OBJECT_TYPE":"PAYLOAD","NORAD_CAT_ID":"47144","DECAY_DATE":null,"MEAN_MOTION_DDOT":"0.0000000000000","INCLINATION":"53.0546","COUNTRY_CODE":"US","CENTER_NAME":"EARTH","MEAN_ELEMENT_THEORY":"SGP4","APOAPSIS":"548.578","BSTAR":"0.00004654800000","REF_FRAME":"TEME","MEAN_ANOMALY":"307.1542","PERIOD":"95.592","SEMIMAJOR_AXIS":"6925.362","GP_ID":"198688496","REV_AT_EPOCH":"7254","TLE_LINE1":"1 47144U 20088Y   22072.88949268  .00000412  00000-0  46548-4 0  9993"},{"TIME_SYSTEM":"UTC","MEAN_MOTION":"15.43176499","EPOCH":"2022-03-13T22:35:34.718784","FILE":"3358388","ELEMENT_SET_NO":"999","LAUNCH_DATE":"2020-11-25","TLE_LINE2":"2 47145  53.0548 331.3052 0001552  42.6428 317.4698 15.43176499 72695","SITE":"AFETR","ARG_OF_PERICENTER":"42.6428","RA_OF_ASC_NODE":"331.3052","PERIAPSIS":"435.686","ECCENTRICITY":"0.00015520","EPHEMERIS_TYPE":"0","CLASSIFICATION_TYPE":"U","MEAN_MOTION_DOT":"0.00074599","OBJECT_NAME":"STARLINK-1858","MEAN_ANOMALY":"317.4698","PERIOD":"93.314","REF_FRAME":"TEME","BSTAR":"0.00164980000000","APOAPSIS":"437.801","MEAN_ELEMENT_THEORY":"SGP4","CENTER_NAME":"EARTH","REV_AT_EPOCH":"7269","TLE_LINE1":"1 47145U 20088Z   22072.94137406  .00074599  00000-0  16498-2 0  9990","GP_ID":"198689244","SEMIMAJOR_AXIS":"6814.878","RCS_SIZE":"LARGE","OBJECT_TYPE":"PAYLOAD","OBJECT_ID":"2020-088Z","COUNTRY_CODE":"US","INCLINATION":"53.0548","MEAN_MOTION_DDOT":"0.0000000000000","DECAY_DATE":null,"NORAD_CAT_ID":"47145"},{"INCLINATION":"53.0512","COUNTRY_CODE":"US","MEAN_MOTION_DDOT":"0.0000000000000","DECAY_DATE":null,"NORAD_CAT_ID":"47146","OBJECT_TYPE":"PAYLOAD","RCS_SIZE":"LARGE","OBJECT_ID":"2020-088AA","REV_AT_EPOCH":"7273","TLE_LINE1":"1 47146U 20088AA  22072.92190265  .00299284  00000-0  11550-2 0  9995","SEMIMAJOR_AXIS":"6691.779","GP_ID":"198687501","REF_FRAME":"TEME","PERIOD":"90.797","MEAN_ANOMALY":"169.0202","BSTAR":"0.00115500000000","MEAN_ELEMENT_THEORY":"SGP4","CENTER_NAME":"EARTH","APOAPSIS":"314.980","CLASSIFICATION_TYPE":"U","MEAN_MOTION_DOT":"0.00299284","OBJECT_NAME":"STARLINK-1859","ECCENTRICITY":"0.00019960","EPHEMERIS_TYPE":"0","LAUNCH_DATE":"2020-11-25","SITE":"AFETR","TLE_LINE2":"2 47146  53.0512 328.0376 0001996 191.0778 169.0202 15.85953135 72731","RA_OF_ASC_NODE":"328.0376","PERIAPSIS":"312.309","ARG_OF_PERICENTER":"191.0778","TIME_SYSTEM":"UTC","MEAN_MOTION":"15.85953135","ELEMENT_SET_NO":"999","EPOCH":"2022-03-13T22:07:32.388960","FILE":"3358388"},{"ECCENTRICITY":"0.00017470","EPHEMERIS_TYPE":"0","CLASSIFICATION_TYPE":"U","OBJECT_NAME":"STARLINK-1860","MEAN_MOTION_DOT":"-0.00001355","MEAN_MOTION":"15.06380854","TIME_SYSTEM":"UTC","FILE":"3358388","EPOCH":"2022-03-13T21:55:22.626912","ELEMENT_SET_NO":"999","TLE_LINE2":"2 47147  53.0564   1.3527 0001747  58.5896 301.5264 15.06380854 72275","SITE":"AFETR","LAUNCH_DATE":"2020-11-25","ARG_OF_PERICENTER":"58.5896","PERIAPSIS":"546.062","RA_OF_ASC_NODE":"1.3527","RCS_SIZE":"LARGE","OBJECT_TYPE":"PAYLOAD","OBJECT_ID":"2020-088AB","COUNTRY_CODE":"US","INCLINATION":"53.0564","NORAD_CAT_ID":"47147","DECAY_DATE":null,"MEAN_MOTION_DDOT":"0.0000000000000","BSTAR":"-0.00007212800000","PERIOD":"95.593","MEAN_ANOMALY":"301.5264","REF_FRAME":"TEME","APOAPSIS":"548.482","MEAN_ELEMENT_THEORY":"SGP4","CENTER_NAME":"EARTH","SEMIMAJOR_AXIS":"6925.407","GP_ID":"198688250","TLE_LINE1":"1 47147U 20088AB  22072.91345633 -.00001355  00000-0 -72128-4 0  9998","REV_AT_EPOCH":"7227"},{"EPHEMERIS_TYPE":"0","ECCENTRICITY":"0.00017970","OBJECT_NAME":"STARLINK-1861","MEAN_MOTION_DOT":"-0.00001850","CLASSIFICATION_TYPE":"U","ELEMENT_SET_NO":"999","EPOCH":"2022-03-13T22:55:05.198592","FILE":"3358388","MEAN_MOTION":"15.06398455","TIME_SYSTEM":"UTC","RA_OF_ASC_NODE":"351.1694","PERIAPSIS":"545.974","ARG_OF_PERICENTER":"58.6581","SITE":"AFETR","TLE_LINE2":"2 47148  53.0561 351.1694 0001797  58.6581 301.4584 15.06398455 72417","LAUNCH_DATE":"2020-11-25","OBJECT_ID":"2020-088AC","OBJECT_TYPE":"PAYLOAD","RCS_SIZE":"LARGE","NORAD_CAT_ID":"47148","DECAY_DATE":null,"MEAN_MOTION_DDOT":"0.0000000000000","INCLINATION":"53.0561","COUNTRY_CODE":"US","CENTER_NAME":"EARTH","MEAN_ELEMENT_THEORY":"SGP4","APOAPSIS":"548.463","BSTAR":"-0.00010533000000","REF_FRAME":"TEME","PERIOD":"95.592","MEAN_ANOMALY":"301.4584","SEMIMAJOR_AXIS":"6925.353","GP_ID":"198688997","TLE_LINE1":"1 47148U 20088AC  22072.95492128 -.00001850  00000-0 -10533-3 0  9996","REV_AT_EPOCH":"7241"},{"TLE_LINE1":"1 47149U 20088AD  22072.85080121 -.00002893  00000-0 -17535-3 0  9999","REV_AT_EPOCH":"7299","GP_ID":"198688744","SEMIMAJOR_AXIS":"6925.336","MEAN_ELEMENT_THEORY":"SGP4","CENTER_NAME":"EARTH","APOAPSIS":"548.285","REF_FRAME":"TEME","MEAN_ANOMALY":"288.7310","PERIOD":"95.592","BSTAR":"-0.00017535000000","DECAY_DATE":null,"MEAN_MOTION_DDOT":"0.0000000000000","NORAD_CAT_ID":"47149","INCLINATION":"53.0562","COUNTRY_CODE":"US","OBJECT_ID":"2020-088AD","RCS_SIZE":"LARGE","OBJECT_TYPE":"PAYLOAD","RA_OF_ASC_NODE":"1.6207","PERIAPSIS":"546.116","ARG_OF_PERICENTER":"71.3849","LAUNCH_DATE":"2020-11-25","SITE":"AFETR","TLE_LINE2":"2 47149  53.0562   1.6207 0001566  71.3849 288.7310 15.06404134 72998","ELEMENT_SET_NO":"999","FILE":"3358388","EPOCH":"2022-03-13T20:25:09.224544","TIME_SYSTEM":"UTC","MEAN_MOTION":"15.06404134","MEAN_MOTION_DOT":"-0.00002893","OBJECT_NAME":"STARLINK-1862","CLASSIFICATION_TYPE":"U","EPHEMERIS_TYPE":"0","ECCENTRICITY":"0.00015660"},{"APOAPSIS":"548.267","MEAN_ELEMENT_THEORY":"SGP4","CENTER_NAME":"EARTH","PERIOD":"95.593","MEAN_ANOMALY":"289.6762","REF_FRAME":"TEME","BSTAR":"0.00029391000000","TLE_LINE1":"1 47150U 20088AE  22072.91069027  .00004097  00000-0  29391-3 0  9999","REV_AT_EPOCH":"7241","GP_ID":"198688002","SEMIMAJOR_AXIS":"6925.388","OBJECT_ID":"2020-088AE","RCS_SIZE":"LARGE","OBJECT_TYPE":"PAYLOAD","DECAY_DATE":null,"MEAN_MOTION_DDOT":"0.0000000000000","NORAD_CAT_ID":"47150","COUNTRY_CODE":"US","INCLINATION":"53.0555","FILE":"3358388","EPOCH":"2022-03-13T21:51:23.639328","ELEMENT_SET_NO":"999","TIME_SYSTEM":"UTC","MEAN_MOTION":"15.06386993","ARG_OF_PERICENTER":"70.4385","PERIAPSIS":"546.240","RA_OF_ASC_NODE":"351.3513","LAUNCH_DATE":"2020-11-25","TLE_LINE2":"2 47150  53.0555 351.3513 0001463  70.4385 289.6762 15.06386993 72418","SITE":"AFETR","EPHEMERIS_TYPE":"0","ECCENTRICITY":"0.00014630","MEAN_MOTION_DOT":"0.00004097","OBJECT_NAME":"STARLINK-1863","CLASSIFICATION_TYPE":"U"},{"RA_OF_ASC_NODE":"1.6618","PERIAPSIS":"545.979","ARG_OF_PERICENTER":"57.2896","LAUNCH_DATE":"2020-11-25","SITE":"AFETR","TLE_LINE2":"2 47151  53.0552   1.6618 0001753  57.2896 302.8262 15.06406579 72257","ELEMENT_SET_NO":"999","EPOCH":"2022-03-13T20:14:30.965280","FILE":"3358388","TIME_SYSTEM":"UTC","MEAN_MOTION":"15.06406579","MEAN_MOTION_DOT":"0.00001305","OBJECT_NAME":"STARLINK-1864","CLASSIFICATION_TYPE":"U","EPHEMERIS_TYPE":"0","ECCENTRICITY":"0.00017530","TLE_LINE1":"1 47151U 20088AF  22072.84341395  .00001305  00000-0  10650-3 0  9990","REV_AT_EPOCH":"7225","SEMIMAJOR_AXIS":"6925.328","GP_ID":"198687750","MEAN_ELEMENT_THEORY":"SGP4","CENTER_NAME":"EARTH","APOAPSIS":"548.407","REF_FRAME":"TEME","MEAN_ANOMALY":"302.8262","PERIOD":"95.592","BSTAR":"0.00010650000000","DECAY_DATE":null,"MEAN_MOTION_DDOT":"0.0000000000000","NORAD_CAT_ID":"47151","INCLINATION":"53.0552","COUNTRY_CODE":"US","OBJECT_ID":"2020-088AF","OBJECT_TYPE":"PAYLOAD","RCS_SIZE":"LARGE"}];
